{"type":"FeatureCollection","features":[{"type":"Feature","properties":{"divisionId":"2703"},"geometry":{"type":"Polygon","coordinates":[[[-75.1914669378808,39.9558521580075],[-75.1894913219023,39.9556022720661],[-75.1882687524416,39.9554510482465],[-75.1879621195952,39.9554127815782],[-75.1872304809145,39.9553246688475],[-75.1870665287197,39.9553049231379],[-75.1853605466696,39.9550890391254],[-75.1851653156474,39.9550642440377],[-75.1834135969642,39.9548417508121],[-75.1832842804463,39.9548226294743],[-75.1821887254677,39.9547062147352],[-75.181221273222,39.9546034025499],[-75.1811641603245,39.9545964157618],[-75.1811068131982,39.9545894002737],[-75.1803697739741,39.954499231244],[-75.1802262696696,39.9544816744447],[-75.1802290936989,39.9544756036182],[-75.1802442116609,39.9544436310945],[-75.1802595407713,39.9544117092504],[-75.1802750728414,39.9543798379026],[-75.1802907997847,39.9543480141667],[-75.1803067158201,39.9543162361111],[-75.1803228116233,39.9542845026259],[-75.1803390802435,39.9542528117533],[-75.1803555147641,39.9542211606354],[-75.1803721058266,39.9541895490622],[-75.1803888465144,39.954157974176],[-75.1804057298427,39.9541264349191],[-75.1804227465554,39.954094928381],[-75.1804398908715,39.9540634526303],[-75.1804571534327,39.9540320074573],[-75.1804745284921,39.9540005900302],[-75.1804920067596,39.9539691983388],[-75.1805095812846,39.9539378304253],[-75.1805272439125,39.9539064852061],[-75.1805449865572,39.9538751597969],[-75.1805628034036,39.9538438531666],[-75.1805806862975,39.9538125642313],[-75.1805986260167,39.9537812891805],[-75.1806166155427,39.953750027857],[-75.1806346491286,39.953718777429],[-75.1806527162806,39.9536875367603],[-75.1806708100823,39.9536563029931],[-75.1806889246847,39.9536250759964],[-75.180707050832,39.9535938528598],[-75.1807251804038,39.9535626315993],[-75.1807433076194,39.9535314102836],[-75.1807614231549,39.9535001878028],[-75.1807795200596,39.9534689621992],[-75.1807975902475,39.9534377305886],[-75.1808156267,39.9534064928141],[-75.1808336213312,39.9533752459912],[-75.1808515660205,39.9533439881362],[-75.1808694538179,39.9533127172916],[-75.1808872777048,39.9532814333001],[-75.1809050284593,39.9532501323511],[-75.1809226990971,39.9532188133873],[-75.1809402826337,39.9531874753514],[-75.1809577710173,39.9531561144588],[-75.1809751838953,39.9531247374569],[-75.1809926094543,39.9530933652417],[-75.1810100523393,39.9530619988182],[-75.1810275125503,39.9530306381865],[-75.181040192462,39.953007889589],[-75.1816807676225,39.9530908853993],[-75.181714970211,39.953095301132],[-75.1818041227279,39.9531068117312],[-75.1819363242055,39.9531238793244],[-75.1825497133656,39.9531987832516],[-75.1833404965208,39.9532953443419],[-75.1837433537411,39.9533445340684],[-75.1852698355545,39.9535223234529],[-75.1855869505748,39.9535632970258],[-75.187389576779,39.9537961932791],[-75.1875062639827,39.9538105498872],[-75.1897218228929,39.9540831314014],[-75.1917813649147,39.9543387638622],[-75.1919448598486,39.953577004211],[-75.1934213152495,39.9537622457328],[-75.194132903393,39.9538508077213],[-75.1946259716449,39.9539115879715],[-75.1961369861537,39.9541011491361],[-75.1966053102044,39.9541586597151],[-75.1964478202692,39.9549163237977],[-75.1944699194878,39.9546730336433],[-75.1943844848645,39.9550685350412],[-75.1943525108277,39.9552475160514],[-75.1943106121487,39.9554154107124],[-75.1941555267244,39.9561890664496],[-75.1917360929313,39.9558930006088],[-75.1914669378808,39.9558521580075]]]}},{"type":"Feature","properties":{"divisionId":"2706"},"geometry":{"type":"Polygon","coordinates":[[[-75.2081305164054,39.9579248730949],[-75.2060776686272,39.9576682230745],[-75.2050390601115,39.9575407428283],[-75.204147805988,39.9574314194431],[-75.2034070311991,39.9573387174569],[-75.2019564387869,39.9571584582618],[-75.1996249340968,39.9568698192023],[-75.1997882077065,39.9560971981147],[-75.2021174327086,39.9563856180211],[-75.2022758836335,39.955639439549],[-75.202430510237,39.9548801321476],[-75.2025922544393,39.9541217782398],[-75.2050938679996,39.9544283928189],[-75.2064357026302,39.95459805437],[-75.2062769247154,39.9553569155191],[-75.2061529003183,39.9559433219464],[-75.2061313403748,39.9561196532643],[-75.2063454402153,39.9561466877792],[-75.2067753377426,39.9561992624328],[-75.2067942158412,39.9562016307027],[-75.2084441942637,39.9564088398249],[-75.2097409157946,39.9565716561686],[-75.2096772966817,39.9568736304189],[-75.2095848620327,39.9573136083721],[-75.2094975832004,39.9577259180226],[-75.2094243491173,39.9580830720095],[-75.2081305164054,39.9579248730949]]]}},{"type":"Feature","properties":{"divisionId":"2711"},"geometry":{"type":"Polygon","coordinates":[[[-75.1996249340968,39.9568698192023],[-75.1980102103819,39.9566637528097],[-75.1961231100098,39.9564382834503],[-75.1941555267244,39.9561890664496],[-75.1943106121487,39.9554154107124],[-75.1943525108277,39.9552475160514],[-75.1943844848645,39.9550685350412],[-75.1944699194878,39.9546730336433],[-75.1964478202692,39.9549163237977],[-75.1966053102044,39.9541586597151],[-75.1967652085916,39.9533968143544],[-75.1986510080175,39.9536336501029],[-75.2002627682356,39.9538298005984],[-75.2025922544393,39.9541217782398],[-75.202430510237,39.9548801321476],[-75.2022758836335,39.955639439549],[-75.2021174327086,39.9563856180211],[-75.1997882077065,39.9560971981147],[-75.1996249340968,39.9568698192023]]]}},{"type":"Feature","properties":{"divisionId":"2718"},"geometry":{"type":"Polygon","coordinates":[[[-75.1946259716449,39.9539115879715],[-75.1947891068477,39.9531513234647],[-75.1950528964861,39.9520416915695],[-75.1953254694848,39.9507910354856],[-75.1970566606679,39.9510076909003],[-75.1972460373736,39.9510302047635],[-75.1973262048787,39.9510397346825],[-75.1992074655156,39.9512664190976],[-75.1991036570103,39.9513579379119],[-75.1989848230921,39.9519267115674],[-75.1989859790012,39.9519878182734],[-75.1988873346904,39.952501957829],[-75.2005275247073,39.9527031226175],[-75.2005273081176,39.952704089989],[-75.2028298105107,39.952979312541],[-75.2025922544393,39.9541217782398],[-75.2002627682356,39.9538298005984],[-75.1986510080175,39.9536336501029],[-75.1967652085916,39.9533968143544],[-75.1966053102044,39.9541586597151],[-75.1961369861537,39.9541011491361],[-75.1946259716449,39.9539115879715]]]}},{"type":"Feature","properties":{"divisionId":"2719"},"geometry":{"type":"Polygon","coordinates":[[[-75.1897218228929,39.9540831314014],[-75.1875062639827,39.9538105498872],[-75.187389576779,39.9537961932791],[-75.1855869505748,39.9535632970258],[-75.1852698355545,39.9535223234529],[-75.1837433537411,39.9533445340684],[-75.1833404965208,39.9532953443419],[-75.1825497133656,39.9531987832516],[-75.1819363242055,39.9531238793244],[-75.1818041227279,39.9531068117312],[-75.181714970211,39.953095301132],[-75.1816807676225,39.9530908853993],[-75.181040192462,39.953007889589],[-75.1810449901212,39.9529992824464],[-75.1810624826786,39.9529679324455],[-75.1810799925958,39.9529365873361],[-75.1810975163297,39.9529052479399],[-75.1811150562878,39.9528739125087],[-75.1811326088926,39.9528425827645],[-75.181150176552,39.952811256959],[-75.1811677569262,39.95277993504],[-75.1811853488114,39.9527486178814],[-75.1812029545813,39.9527173046354],[-75.1812205707606,39.9526859943233],[-75.1812381984509,39.9526546887715],[-75.1812558365506,39.9526233861535],[-75.1812734838899,39.9525920864431],[-75.1812911416045,39.9525607905666],[-75.1813088085587,39.9525294975978],[-75.1813264824129,39.9524982074841],[-75.1813441655408,39.9524669193776],[-75.1813618555687,39.9524356341264],[-75.1813795525307,39.95240435083],[-75.1813972564268,39.9523730694886],[-75.1814149660872,39.9523417900758],[-75.1814326803423,39.9523105125655],[-75.1814503991919,39.9522792369578],[-75.1814681226702,39.9522479623522],[-75.1814858495733,39.9522166896231],[-75.1815035799693,39.9521854169697],[-75.1815213126544,39.9521541452662],[-75.1815390487643,39.952122875439],[-75.1815567848919,39.9520916047088],[-75.1815745233087,39.9520603349284],[-75.1815922617092,39.9520290651454],[-75.1816100000592,39.9519977962597],[-75.1816277372573,39.9519665264449],[-75.1816454744391,39.9519352566273],[-75.1816632104688,39.9519039858805],[-75.1816809441768,39.9518727141784],[-75.1816986743592,39.9518414423948],[-75.1817164022199,39.9518101696559],[-75.1817341266232,39.9517788950352],[-75.1817518463652,39.9517476194067],[-75.1817695614461,39.9517163427705],[-75.1817872707641,39.9516850632998],[-75.1818049754209,39.9516537828214],[-75.1818226742808,39.9516225004087],[-75.1818403650384,39.9515912151093],[-75.1818580488294,39.9515599278495],[-75.1818671325297,39.9515438490376],[-75.1818757256878,39.9515286377291],[-75.1818933932743,39.9514973446957],[-75.1819110515547,39.9514660496495],[-75.1820188281183,39.9512672585066],[-75.1820848864471,39.9511363544234],[-75.1821498238818,39.9510048999268],[-75.1822152805908,39.9508737002954],[-75.1822828943598,39.9507435616519],[-75.182354303033,39.9506152883143],[-75.1824311432426,39.9504896854707],[-75.1825150550544,39.9503675601831],[-75.1826076763248,39.950249715854],[-75.1827084675327,39.950135775479],[-75.1828142708602,39.9500240465471],[-75.1829245340133,39.949914335582],[-75.1830387471294,39.9498064725836],[-75.1831564049937,39.9497002885586],[-75.1832769977488,39.9495956135102],[-75.1834000190493,39.9494922775221],[-75.1835249589743,39.9493901124022],[-75.1835963940967,39.9493329169901],[-75.1836513111825,39.949288948238],[-75.1837785670289,39.9491886141671],[-75.1839062189379,39.949088942056],[-75.1840337582002,39.9489897628469],[-75.1841610339287,39.9488909181914],[-75.1842887222075,39.9487923610425],[-75.1844168639073,39.9486940941151],[-75.1845454518397,39.948596121752],[-75.1846744799862,39.9484984483219],[-75.1848039423623,39.9484010772937],[-75.1849338352547,39.9483040139891],[-75.18506415034,39.9482072618243],[-75.1851948839391,39.9481108252208],[-75.185326030068,39.9480147076474],[-75.1854575815387,39.947918913447],[-75.1855895346726,39.9478234470412],[-75.185721882282,39.9477283127727],[-75.1858546195529,39.9476335141367],[-75.1859877404332,39.9475390564026],[-75.1861212389733,39.9474449421391],[-75.1862551091215,39.9473511766157],[-75.1863689314334,39.947271970108],[-75.1863893472336,39.9472577633536],[-75.1865239449188,39.9471647075702],[-75.1866588985669,39.9470720118864],[-75.1867942009909,39.9469796806455],[-75.1868752190111,39.9469250409711],[-75.1869301591151,39.9468879874032],[-75.1870690281655,39.946798871964],[-75.1872107370393,39.946712264252],[-75.1873546465004,39.9466276075676],[-75.1875001196847,39.9465443443661],[-75.1876465196592,39.9464619189069],[-75.1877932072175,39.9463797735993],[-75.1879395454573,39.9462973518088],[-75.1880848963384,39.9462140959774],[-75.1882286229552,39.9461294494772],[-75.1883700872646,39.9460428547565],[-75.188508650019,39.945953755141],[-75.1886437573174,39.9458616589359],[-75.1887763325985,39.9457672850548],[-75.1888449618885,39.9457167598476],[-75.188906942521,39.9456711281987],[-75.1890357455543,39.9455733631043],[-75.1891628988287,39.9454741689825],[-75.1892885608148,39.9453737205682],[-75.1894128898477,39.9452721961967],[-75.1895360455347,39.9451697715278],[-75.1896581838727,39.9450666248432],[-75.1897794633,39.9449629317751],[-75.1899000433572,39.9448588697819],[-75.1900200813137,39.9447546144684],[-75.190139323164,39.9446499790647],[-75.1902570272997,39.944544296495],[-75.1903733925208,39.9444376964403],[-75.1904886573087,39.9443303428041],[-75.1906030602121,39.9442223976877],[-75.1907168385083,39.9441140258666],[-75.1908302318811,39.9440053903668],[-75.190943476505,39.9438966541352],[-75.1910568132327,39.9437879802221],[-75.1911704782038,39.9436795324727],[-75.1912847098971,39.9435714747833],[-75.191399748028,39.9434639692751],[-75.1915158287352,39.9433571797905],[-75.1916331916659,39.943251270249],[-75.1916402608928,39.9432448920121],[-75.1917510638767,39.9431449133412],[-75.1918689584301,39.9430371134031],[-75.1919888949713,39.9429305022718],[-75.1921129331894,39.9428277676294],[-75.1922431315446,39.942731598924],[-75.192381549678,39.9426446856192],[-75.1925295372992,39.9425675245017],[-75.1926856657807,39.9424968337452],[-75.192848237122,39.9424325078844],[-75.1930155745911,39.9423745608693],[-75.1931859978888,39.9423230083812],[-75.193357829062,39.9422778661632],[-75.1935310247393,39.9422384836145],[-75.193706360709,39.9422090704073],[-75.1937869265676,39.9421991339364],[-75.1938863156165,39.9421868742282],[-75.1939732998411,39.942179886402],[-75.1940683125139,39.9421722538951],[-75.1942507463806,39.9421646870894],[-75.1944320143955,39.9421636551554],[-75.1946115518898,39.9421690473073],[-75.1947915137526,39.9421814900049],[-75.1949715174111,39.9422002322925],[-75.1951509559411,39.942224419109],[-75.1953292187978,39.9422531980197],[-75.1955057002059,39.9422857139972],[-75.1956801022121,39.9423213306095],[-75.1958536403927,39.9423607191547],[-75.1960261416872,39.9424040001217],[-75.1961971615639,39.9424511356855],[-75.1963662601332,39.9425020890284],[-75.1965329952321,39.9425568214825],[-75.1966969255599,39.9426153025108],[-75.1968579356957,39.9426780188023],[-75.1968981205399,39.9426948854358],[-75.1965563961735,39.9433065360011],[-75.1965418922482,39.9433466449001],[-75.1964335371127,39.9436462952268],[-75.1964769741275,39.9437611387137],[-75.1965831688348,39.9439037265191],[-75.1967451772069,39.9440582804244],[-75.1978442009117,39.9444179336483],[-75.1980516248326,39.94472950538],[-75.1982027651934,39.9449999802641],[-75.1982824573668,39.9451425939563],[-75.1982959557224,39.9451667492874],[-75.1984166054441,39.9454311313982],[-75.1984771470352,39.9457153896024],[-75.1984675482273,39.9460878773404],[-75.1984434898435,39.946611722438],[-75.1985241047868,39.9471308518106],[-75.1986841920748,39.9477148723303],[-75.1988796900671,39.948206617876],[-75.1988881103463,39.9482277958827],[-75.1991063444747,39.9486154145831],[-75.1993258040895,39.9489704832869],[-75.1995481183843,39.9492203018117],[-75.199594359723,39.9493167437476],[-75.1996353964367,39.9494379494231],[-75.1996575712321,39.9495411931445],[-75.1996662621026,39.9496566673658],[-75.1996648159293,39.949781939903],[-75.1996509206586,39.9498918996772],[-75.1996246690729,39.9499840421497],[-75.1996089674837,39.9500396022738],[-75.199521306052,39.9502297792556],[-75.1994744966395,39.9503482821613],[-75.1993600438085,39.9502168403355],[-75.1955789579228,39.9497379241409],[-75.1953254694848,39.9507910354856],[-75.1950528964861,39.9520416915695],[-75.1947891068477,39.9531513234647],[-75.1946259716449,39.9539115879715],[-75.194132903393,39.9538508077213],[-75.1934213152495,39.9537622457328],[-75.1919448598486,39.953577004211],[-75.1917813649147,39.9543387638622],[-75.1897218228929,39.9540831314014]]]}},{"type":"Feature","properties":{"divisionId":"2720"},"geometry":{"type":"Polygon","coordinates":[[[-75.2005273081176,39.952704089989],[-75.2008043422248,39.9514675445856],[-75.2030862870623,39.9517549129314],[-75.2030738119306,39.9518391790414],[-75.2028298105107,39.952979312541],[-75.2005273081176,39.952704089989]]]}},{"type":"Feature","properties":{"divisionId":"2721"},"geometry":{"type":"Polygon","coordinates":[[[-75.1988873346904,39.952501957829],[-75.1989859790012,39.9519878182734],[-75.1989848230921,39.9519267115674],[-75.1991036570103,39.9513579379119],[-75.1992074655156,39.9512664190976],[-75.2008043422248,39.9514675445856],[-75.2005275247073,39.9527031226175],[-75.1988873346904,39.952501957829]]]}},{"type":"Feature","properties":{"divisionId":"2722"},"geometry":{"type":"Polygon","coordinates":[[[-75.1972460373736,39.9510302047635],[-75.1970566606679,39.9510076909003],[-75.1953254694848,39.9507910354856],[-75.1955789579228,39.9497379241409],[-75.1993600438085,39.9502168403355],[-75.1994744966395,39.9503482821613],[-75.1994294894566,39.9504289666557],[-75.1992074655156,39.9512664190976],[-75.1973262048787,39.9510397346825],[-75.1972460373736,39.9510302047635]]]}}]}
